{
  "type": "FeatureCollection",
  "features": [
    {
      "type": "Feature",
      "properties": {
        "norad_id": 66640,
        "name": "STARLINK-35921",
        "group": "last-30-days",
        "lat": 34.158803650837434,
        "lon": -20.663739305253348,
        "alt_km": 404.7281895713777,
        "timestamp": "2025-12-12T03:50:51.177748+00:00",
        "meta_object_name": "STARLINK-35921",
        "meta_object_id": "2025-271Z",
        "meta_epoch": "2025-12-11T14:00:01.999872",
        "meta_mean_motion": 15.54900516,
        "meta_eccentricity": 0.00012082,
        "meta_inclination": 53.1599,
        "meta_ra_of_asc_node": 192.6925,
        "meta_arg_of_pericenter": 98.0049,
        "meta_mean_anomaly": 48.5358,
        "meta_ephemeris_type": 0,
        "meta_classification_type": "U",
        "meta_norad_cat_id": 66640,
        "meta_element_set_no": 999,
        "meta_rev_at_epoch": 405,
        "meta_bstar": -0.033314527,
        "meta_mean_motion_dot": -0.02024437,
        "meta_mean_motion_ddot": 0,
        "tle_line1": "1 66640U 25271Z   25345.58335648 -.02024437  00000+0 -33315-1 0  9999",
        "tle_line2": "2 66640  53.1599 192.6925 0001208  98.0049  48.5358 15.54900516  4059"
      },
      "geometry": {
        "type": "Point",
        "coordinates": [
          -20.663739305253348,
          34.158803650837434
        ]
      }
    },
    {
      "type": "Feature",
      "properties": {
        "norad_id": 66641,
        "name": "STARLINK-35923",
        "group": "last-30-days",
        "lat": 28.70580516793882,
        "lon": -14.342000031803657,
        "alt_km": 405.6223278628049,
        "timestamp": "2025-12-12T03:50:51.177758+00:00",
        "meta_object_name": "STARLINK-35923",
        "meta_object_id": "2025-271AA",
        "meta_epoch": "2025-12-11T14:00:01.999872",
        "meta_mean_motion": 15.54896125,
        "meta_eccentricity": 0.00011679,
        "meta_inclination": 53.1597,
        "meta_ra_of_asc_node": 192.6756,
        "meta_arg_of_pericenter": 108.2858,
        "meta_mean_anomaly": 45.9225,
        "meta_ephemeris_type": 0,
        "meta_classification_type": "U",
        "meta_norad_cat_id": 66641,
        "meta_element_set_no": 999,
        "meta_rev_at_epoch": 405,
        "meta_bstar": -0.033199282,
        "meta_mean_motion_dot": -0.02017856,
        "meta_mean_motion_ddot": 0,
        "tle_line1": "1 66641U 25271AA  25345.58335648 -.02017856  00000+0 -33199-1 0  9997",
        "tle_line2": "2 66641  53.1597 192.6756 0001167 108.2858  45.9225 15.54896125  4050"
      },
      "geometry": {
        "type": "Point",
        "coordinates": [
          -14.342000031803657,
          28.70580516793882
        ]
      }
    },
    {
      "type": "Feature",
      "properties": {
        "norad_id": 66642,
        "name": "STARLINK-35926",
        "group": "last-30-days",
        "lat": 30.09600835686561,
        "lon": -15.852332757351274,
        "alt_km": 405.46618969860174,
        "timestamp": "2025-12-12T03:50:51.177768+00:00",
        "meta_object_name": "STARLINK-35926",
        "meta_object_id": "2025-271AB",
        "meta_epoch": "2025-12-11T14:00:01.999872",
        "meta_mean_motion": 15.54897298,
        "meta_eccentricity": 0.00011705,
        "meta_inclination": 53.1599,
        "meta_ra_of_asc_node": 192.6804,
        "meta_arg_of_pericenter": 96.8845,
        "meta_mean_anomaly": 55.4091,
        "meta_ephemeris_type": 0,
        "meta_classification_type": "U",
        "meta_norad_cat_id": 66642,
        "meta_element_set_no": 999,
        "meta_rev_at_epoch": 382,
        "meta_bstar": -0.033244773,
        "meta_mean_motion_dot": -0.02020408,
        "meta_mean_motion_ddot": 0,
        "tle_line1": "1 66642U 25271AB  25345.58335648 -.02020408  00000+0 -33245-1 0  9997",
        "tle_line2": "2 66642  53.1599 192.6804 0001170  96.8845  55.4091 15.54897298  3822"
      },
      "geometry": {
        "type": "Point",
        "coordinates": [
          -15.852332757351274,
          30.09600835686561
        ]
      }
    },
    {
      "type": "Feature",
      "properties": {
        "norad_id": 66643,
        "name": "STARLINK-35918",
        "group": "last-30-days",
        "lat": 32.825870812048784,
        "lon": -19.012227761510193,
        "alt_km": 404.96009433380186,
        "timestamp": "2025-12-12T03:50:51.177778+00:00",
        "meta_object_name": "STARLINK-35918",
        "meta_object_id": "2025-271AC",
        "meta_epoch": "2025-12-11T14:00:01.999872",
        "meta_mean_motion": 15.54899151,
        "meta_eccentricity": 0.00012143,
        "meta_inclination": 53.1601,
        "meta_ra_of_asc_node": 192.6885,
        "meta_arg_of_pericenter": 98.2654,
        "meta_mean_anomaly": 50.1943,
        "meta_ephemeris_type": 0,
        "meta_classification_type": "U",
        "meta_norad_cat_id": 66643,
        "meta_element_set_no": 999,
        "meta_rev_at_epoch": 405,
        "meta_bstar": -0.033314898,
        "meta_mean_motion_dot": -0.02024369,
        "meta_mean_motion_ddot": 0,
        "tle_line1": "1 66643U 25271AC  25345.58335648 -.02024369  00000+0 -33315-1 0  9996",
        "tle_line2": "2 66643  53.1601 192.6885 0001214  98.2654  50.1943 15.54899151  4053"
      },
      "geometry": {
        "type": "Point",
        "coordinates": [
          -19.012227761510193,
          32.825870812048784
        ]
      }
    },
    {
      "type": "Feature",
      "properties": {
        "norad_id": 66644,
        "name": "STARLINK-35938",
        "group": "last-30-days",
        "lat": 31.469027011561217,
        "lon": -17.40703630629837,
        "alt_km": 405.24731076832813,
        "timestamp": "2025-12-12T03:50:51.177790+00:00",
        "meta_object_name": "STARLINK-35938",
        "meta_object_id": "2025-271AD",
        "meta_epoch": "2025-12-11T14:00:01.999872",
        "meta_mean_motion": 15.54899532,
        "meta_eccentricity": 0.00012384,
        "meta_inclination": 53.1598,
        "meta_ra_of_asc_node": 192.6849,
        "meta_arg_of_pericenter": 90.6673,
        "meta_mean_anomaly": 59.7107,
        "meta_ephemeris_type": 0,
        "meta_classification_type": "U",
        "meta_norad_cat_id": 66644,
        "meta_element_set_no": 999,
        "meta_rev_at_epoch": 405,
        "meta_bstar": -0.03331954,
        "meta_mean_motion_dot": -0.02024662,
        "meta_mean_motion_ddot": 0,
        "tle_line1": "1 66644U 25271AD  25345.58335648 -.02024662  00000+0 -33320-1 0  9999",
        "tle_line2": "2 66644  53.1598 192.6849 0001238  90.6673  59.7107 15.54899532  4052"
      },
      "geometry": {
        "type": "Point",
        "coordinates": [
          -17.40703630629837,
          31.469027011561217
        ]
      }
    },
    {
      "type": "Feature",
      "properties": {
        "norad_id": 66645,
        "name": "SHENZHOU-22",
        "group": "last-30-days",
        "lat": 32.99437441701969,
        "lon": 152.89891131281385,
        "alt_km": 385.6570747659662,
        "timestamp": "2025-12-12T03:50:51.177800+00:00",
        "meta_object_name": "SHENZHOU-22",
        "meta_object_id": "2025-272A",
        "meta_epoch": "2025-12-11T11:56:35.385792",
        "meta_mean_motion": 15.59100786,
        "meta_eccentricity": 0.00085964,
        "meta_inclination": 41.4684,
        "meta_ra_of_asc_node": 24.2481,
        "meta_arg_of_pericenter": 20.0947,
        "meta_mean_anomaly": 340.0228,
        "meta_ephemeris_type": 0,
        "meta_classification_type": "U",
        "meta_norad_cat_id": 66645,
        "meta_element_set_no": 999,
        "meta_rev_at_epoch": 26357,
        "meta_bstar": 0.00045432813,
        "meta_mean_motion_dot": 0.00036404,
        "meta_mean_motion_ddot": 0,
        "tle_line1": "1 66645U 25272A   25345.49763178  .00036404  00000+0  45433-3 0  9997",
        "tle_line2": "2 66645  41.4684  24.2481 0008596  20.0947 340.0228 15.59100786263571"
      },
      "geometry": {
        "type": "Point",
        "coordinates": [
          152.89891131281385,
          32.99437441701969
        ]
      }
    },
    {
      "type": "Feature",
      "properties": {
        "norad_id": 66647,
        "name": "COSMOS 2597 (RODNIK-S 22)",
        "group": "last-30-days",
        "lat": 39.17084872568036,
        "lon": -67.02942534620298,
        "alt_km": 1497.2253398754465,
        "timestamp": "2025-12-12T03:50:51.177810+00:00",
        "meta_object_name": "COSMOS 2597 (RODNIK-S 22)",
        "meta_object_id": "2025-273A",
        "meta_epoch": "2025-12-11T14:06:05.355072",
        "meta_mean_motion": 12.41951308,
        "meta_eccentricity": 0.00079153,
        "meta_inclination": 82.4989,
        "meta_ra_of_asc_node": 287.1644,
        "meta_arg_of_pericenter": 291.9215,
        "meta_mean_anomaly": 68.1023,
        "meta_ephemeris_type": 0,
        "meta_classification_type": "U",
        "meta_norad_cat_id": 66647,
        "meta_element_set_no": 999,
        "meta_rev_at_epoch": 199,
        "meta_bstar": 0.0001610974,
        "meta_mean_motion_dot": 3.2e-07,
        "meta_mean_motion_ddot": 0,
        "tle_line1": "1 66647U 25273A   25345.58756198  .00000032  00000+0  16110-3 0  9992",
        "tle_line2": "2 66647  82.4989 287.1644 0007915 291.9215  68.1023 12.41951308  1997"
      },
      "geometry": {
        "type": "Point",
        "coordinates": [
          -67.02942534620298,
          39.17084872568036
        ]
      }
    }
  ]
}